NORAD_CAT_ID,OBJECT_NAME,OBJECT_TYPE,EPOCH,MEAN_MOTION,ECCENTRICITY,INCLINATION,RA_OF_ASC_NODE,ARG_OF_PERICENTER,MEAN_ANOMALY,BSTAR,MEAN_MOTION_DOT,MEAN_MOTION_DDOT,TLE_LINE0,TLE_LINE1,TLE_LINE2,SEMIMAJOR_AXIS,PERIOD,APOGEE,PERIGEE,DECAYED
53569.0,STARLINK-4582,PAYLOAD,2023-06-19 02:05:47,15.08838226,0.0001087,53.2147,199.091,73.9236,286.1876,0.00010289,1.35e-05,0.0,0 STARLINK-4582,1 53569U 22101AU  23170.08735156  .00001350  00000-0  10289-3 0  9994,2 53569  53.2147 199.0910 0001087  73.9236 286.1876 15.08838226 46963,6917.886,95.438,540.503,538.999,0.0
53569.0,STARLINK-4582,PAYLOAD,2023-06-19 08:27:19,15.08840283,0.0001101,53.2147,197.9012,76.9447,283.1668,0.00010932,1.452e-05,0.0,0 STARLINK-4582,1 53569U 22101AU  23170.35231043  .00001452  00000-0  10932-3 0  9998,2 53569  53.2147 197.9012 0001101  76.9447 283.1668 15.08840283 47005,6917.88,95.438,540.506,538.983,0.0
53569.0,STARLINK-4582,PAYLOAD,2023-06-20 01:56:34,15.08837486,0.0001109,53.2145,194.6302,76.4945,283.6171,6.0549e-05,6.76e-06,0.0,0 STARLINK-4582,1 53569U 22101AU  23171.08095412  .00000676  00000-0  60549-4 0  9994,2 53569  53.2145 194.6302 0001109  76.4945 283.6171 15.08837486 46447,6917.888,95.438,540.52,538.986,0.0
53569.0,STARLINK-4582,PAYLOAD,2023-06-20 08:18:06,15.0883808,0.0001115,53.2146,193.4406,77.0637,283.048,5.951e-05,6.59e-06,0.0,0 STARLINK-4582,1 53569U 22101AU  23171.34591407  .00000659  00000-0  59510-4 0  9995,2 53569  53.2146 193.4406 0001115  77.0637 283.0480 15.08838080 47159,6917.886,95.438,540.523,538.98,0.0
53569.0,STARLINK-4582,PAYLOAD,2023-06-21 11:19:40,15.08839376,0.0001163,53.2149,188.3862,77.8809,282.2313,3.2057e-05,2.22e-06,0.0,0 STARLINK-4582,1 53569U 22101AU  23172.47199508  .00000222  00000-0  32057-4 0  9999,2 53569  53.2149 188.3862 0001163  77.8809 282.2313 15.08839376 46652,6917.882,95.438,540.552,538.943,0.0
53569.0,STARLINK-4582,PAYLOAD,2023-06-21 17:41:13,15.08837603,0.000116,53.2147,187.1962,76.7908,283.3214,2.4605e-05,1.04e-06,0.0,0 STARLINK-4582,1 53569U 22101AU  23172.73695658  .00000104  00000-0  24605-4 0  9994,2 53569  53.2147 187.1962 0001160  76.7908 283.3214 15.08837603 47365,6917.888,95.438,540.555,538.95,0.0
53569.0,STARLINK-4582,PAYLOAD,2023-06-22 17:32:00,15.08836802,0.0001107,53.2146,182.7358,74.7603,285.3512,5.2499e-05,5.48e-06,0.0,0 STARLINK-4582,1 53569U 22101AU  23173.73055835  .00000548  00000-0  52499-4 0  9996,2 53569  53.2146 182.7358 0001107  74.7603 285.3512 15.08836802 46840,6917.89,95.438,540.521,538.989,0.0
53569.0,STARLINK-4582,PAYLOAD,2023-06-24 01:19:43,15.08836986,0.0001095,53.2146,176.7881,79.4471,280.6645,4.3361e-05,4.02e-06,0.0,0 STARLINK-4582,1 53569U 22101AU  23175.05536023  .00000402  00000-0  43361-4 0  9993,2 53569  53.2146 176.7881 0001095  79.4471 280.6645 15.08836986 47046,6917.89,95.438,540.512,538.997,0.0
53569.0,STARLINK-4582,PAYLOAD,2023-06-25 09:07:25,15.08843963,0.0001152,53.2147,170.8404,81.3554,278.7568,7.8313e-05,9.59e-06,0.0,0 STARLINK-4582,1 53569U 22101AU  23176.38015558  .00000959  00000-0  78313-4 0  9997,2 53569  53.2147 170.8404 0001152  81.3554 278.7568 15.08843963 47248,6917.868,95.437,540.53,538.936,0.0
53569.0,STARLINK-4582,PAYLOAD,2023-06-26 08:58:12,15.08841188,0.0001176,53.2147,166.3793,86.5664,273.5463,6.3457e-05,7.22e-06,0.0,0 STARLINK-4582,1 53569U 22101AU  23177.37375753  .00000722  00000-0  63457-4 0  9994,2 53569  53.2147 166.3793 0001176  86.5664 273.5463 15.08841188 47394,6917.877,95.437,540.555,538.928,0.0
53569.0,STARLINK-4582,PAYLOAD,2023-06-27 04:02:50,15.08835956,0.0001229,53.2149,162.8102,90.7889,269.3244,2.2229e-06,-2.52e-06,0.0,0 STARLINK-4582,1 53569U 22101AU  23178.16864294 -.00000252  00000-0  22229-5 0  9997,2 53569  53.2149 162.8102 0001229  90.7889 269.3244 15.08835956 47516,6917.893,95.438,540.608,538.908,0.0
53569.0,STARLINK-4582,PAYLOAD,2023-06-28 05:29:00,15.08839195,0.0001212,53.2153,158.0528,89.6214,270.4917,5.0048e-05,5.09e-06,0.0,0 STARLINK-4582,1 53569U 22101AU  23179.22848051  .00000509  00000-0  50048-4 0  9991,2 53569  53.2153 158.0528 0001212  89.6214 270.4917 15.08839195 47677,6917.883,95.438,540.586,538.909,0.0
53569.0,STARLINK-4582,PAYLOAD,2023-06-29 02:09:01,15.08833695,0.0001189,53.2155,154.1872,88.753,271.3598,4.5514e-05,4.36e-06,0.0,0 STARLINK-4582,1 53569U 22101AU  23180.08960578  .00000436  00000-0  45514-4 0  9997,2 53569  53.2155 154.1872 0001189  88.7530 271.3598 15.08833695 47801,6917.9,95.438,540.587,538.942,0.0
53569.0,STARLINK-4582,PAYLOAD,2023-07-01 01:50:36,15.08831625,0.0001116,53.2153,145.2669,92.2295,267.8824,-2.0241e-05,-6.1e-06,0.0,0 STARLINK-4582,1 53569U 22101AU  23182.07681321 -.00000610  00000-0 -20241-4 0  9990,2 53569  53.2153 145.2669 0001116  92.2295 267.8824 15.08831625 48109,6917.906,95.438,540.543,538.999,0.0
53569.0,STARLINK-4582,PAYLOAD,2023-07-01 14:33:41,15.08836871,0.0001109,53.2154,142.8877,87.1083,273.0036,1.697e-05,-1.8e-07,0.0,0 STARLINK-4582,1 53569U 22101AU  23182.60673029 -.00000018  00000-0  16970-4 0  9990,2 53569  53.2154 142.8877 0001109  87.1083 273.0036 15.08836871 48184,6917.89,95.438,540.522,538.988,0.0
53569.0,STARLINK-4582,PAYLOAD,2023-07-02 01:41:22,15.08864033,0.0001222,53.2152,140.8061,78.6529,281.46,-0.00027439,-4.655e-05,0.0,0 STARLINK-4582,1 53569U 22101AU  23183.07040090 -.00004655  00000-0 -27439-3 0  9991,2 53569  53.2152 140.8061 0001222  78.6529 281.4600 15.08864033 48250,6917.807,95.436,540.517,538.827,0.0
53569.0,STARLINK-4582,PAYLOAD,2023-07-02 06:27:32,15.08842807,0.000112,53.2154,139.9143,86.6315,273.4805,5.1697e-05,5.35e-06,0.0,0 STARLINK-4582,1 53569U 22101AU  23183.26912616  .00000535  00000-0  51697-4 0  9999,2 53569  53.2154 139.9143 0001120  86.6315 273.4805 15.08842807 48287,6917.872,95.437,540.512,538.962,0.0
53569.0,STARLINK-4582,PAYLOAD,2023-07-03 01:32:10,15.08836712,0.0001137,53.2156,136.3465,85.3737,274.7385,7.9688e-05,9.81e-06,0.0,0 STARLINK-4582,1 53569U 22101AU  23184.06400956  .00000981  00000-0  79688-4 0  9992,2 53569  53.2156 136.3465 0001137  85.3737 274.7385 15.08836712 48408,6917.89,95.438,540.542,538.969,0.0
53569.0,STARLINK-4582,PAYLOAD,2023-07-04 02:58:20,15.08842223,0.0001265,53.2154,131.5885,88.3739,271.7398,4.7927e-06,-2.12e-06,0.0,0 STARLINK-4582,1 53569U 22101AU  23185.12384817 -.00000212  00000-0  47927-5 0  9997,2 53569  53.2154 131.5885 0001265  88.3739 271.7398 15.08842223 48568,6917.874,95.437,540.614,538.863,0.0
53569.0,STARLINK-4582,PAYLOAD,2023-07-05 01:13:44,15.08836265,0.0001235,53.2156,127.4235,99.4752,260.638,-1.1347e-05,-4.68e-06,0.0,0 STARLINK-4582,1 53569U 22101AU  23186.05121217 -.00000468  00000-0 -11347-4 0  9993,2 53569  53.2156 127.4235 0001235  99.4752 260.6380 15.08836265 48701,6917.892,95.438,540.611,538.902,0.0
53569.0,STARLINK-4582,PAYLOAD,2023-07-06 02:39:54,15.08837215,0.000131,53.2158,122.667,91.1549,268.9593,3.3812e-05,2.5e-06,0.0,0 STARLINK-4582,1 53569U 22101AU  23187.11105211  .00000250  00000-0  33812-4 0  9995,2 53569  53.2158 122.6670 0001310  91.1549 268.9593 15.08837215 48860,6917.889,95.438,540.66,538.848,0.0
53569.0,STARLINK-4582,PAYLOAD,2023-07-07 04:06:04,15.08842251,0.0001193,53.216,117.9082,87.4152,272.6977,7.2951e-05,8.73e-06,0.0,0 STARLINK-4582,1 53569U 22101AU  23188.17088901  .00000873  00000-0  72951-4 0  9996,2 53569  53.2160 117.9082 0001193  87.4152 272.6977 15.08842251 49027,6917.874,95.437,540.564,538.913,0.0
53569.0,STARLINK-4582,PAYLOAD,2023-07-08 02:21:29,15.08838552,0.0001424,53.2176,113.7488,100.4979,259.6174,-2.513e-05,-6.88e-06,0.0,0 STARLINK-4582,1 53569U 22101AU  23189.09825697 -.00000688  00000-0 -25130-4 0  9992,2 53569  53.2176 113.7488 0001424 100.4979 259.6174 15.08838552 49166,6917.885,95.438,540.735,538.765,0.0
53569.0,STARLINK-4582,PAYLOAD,2023-07-09 03:47:39,15.08836202,0.0001302,53.2153,108.9882,89.2986,270.8156,3.2588e-05,2.31e-06,0.0,0 STARLINK-4582,1 53569U 22101AU  23190.15809940  .00000231  00000-0  32588-4 0  9991,2 53569  53.2153 108.9882 0001302  89.2986 270.8156 15.08836202 49325,6917.892,95.438,540.658,538.856,0.0
53569.0,STARLINK-4582,PAYLOAD,2023-07-10 11:35:22,15.08842017,0.0001194,53.2164,103.0411,80.9785,279.1342,8.0578e-05,9.95e-06,0.0,0 STARLINK-4582,1 53569U 22101AU  23191.48289792  .00000995  00000-0  80578-4 0  9994,2 53569  53.2164 103.0411 0001194  80.9785 279.1342 15.08842017 49527,6917.874,95.437,540.565,538.913,0.0
53569.0,STARLINK-4582,PAYLOAD,2023-07-11 03:29:13,15.08850906,0.0001261,53.2164,100.0675,83.7631,276.3504,0.00012609,1.72e-05,0.0,0 STARLINK-4582,1 53569U 22101AU  23192.14529036  .00001720  00000-0  12609-3 0  9992,2 53569  53.2164 100.0675 0001261  83.7631 276.3504 15.08850906 49628,6917.847,95.437,540.584,538.84,0.0
53569.0,STARLINK-4582,PAYLOAD,2023-07-11 17:47:42,15.08838099,0.0001236,53.2159,97.3886,91.733,268.3804,4.1644e-05,3.75e-06,0.0,0 STARLINK-4582,1 53569U 22101AU  23192.74145947  .00000375  00000-0  41644-4 0  9990,2 53569  53.2159  97.3886 0001236  91.7330 268.3804 15.08838099 49714,6917.886,95.438,540.606,538.896,0.0
53569.0,STARLINK-4582,PAYLOAD,2023-07-12 03:20:00,15.08845889,0.0001575,53.217,95.6066,96.4365,263.6806,1.9914e-05,2.9e-07,0.0,0 STARLINK-4582,1 53569U 22101AU  23193.13889486  .00000029  00000-0  19914-4 0  9998,2 53569  53.2170  95.6066 0001575  96.4365 263.6806 15.08845889 49775,6917.862,95.437,540.817,538.638,0.0
53569.0,STARLINK-4582,PAYLOAD,2023-07-13 00:00:01,15.08841826,0.0001354,53.2167,91.7396,96.0213,264.0934,-2.4092e-05,-6.71e-06,0.0,0 STARLINK-4582,1 53569U 22101AU  23194.00001861 -.00000671  00000-0 -24092-4 0  9996,2 53569  53.2167  91.7396 0001354  96.0213 264.0934 15.08841826 49906,6917.875,95.437,540.676,538.803,0.0
53569.0,STARLINK-4582,PAYLOAD,2023-07-14 06:12:20,15.08845751,0.0001097,53.2169,86.0892,93.4744,266.6374,7.9976e-05,9.85e-06,0.0,0 STARLINK-4582,1 53569U 22101AU  23195.25857447  .00000985  00000-0  79976-4 0  9990,2 53569  53.2169  86.0892 0001097  93.4744 266.6374 15.08845751 50099,6917.863,95.437,540.487,538.969,0.0
